NORAD_CAT_ID,OBJECT_NAME,OBJECT_TYPE,EPOCH,MEAN_MOTION,ECCENTRICITY,INCLINATION,RA_OF_ASC_NODE,ARG_OF_PERICENTER,MEAN_ANOMALY,BSTAR,MEAN_MOTION_DOT,MEAN_MOTION_DDOT,TLE_LINE0,TLE_LINE1,TLE_LINE2,SEMIMAJOR_AXIS,PERIOD,APOGEE,PERIGEE,DECAYED
53992.0,STARLINK-5108,PAYLOAD,2024-03-07 13:05:09,15.08847133,0.000127,53.2139,260.8384,77.601,282.5124,0.00053729,8.275e-05,0.0,0 STARLINK-5108,1 53992U 22125AE  24067.54524865  .00008275  00000-0  53729-3 0  9999,2 53992  53.2139 260.8384 0001270  77.6010 282.5124 15.08847133 78925,6917.859,95.437,540.602,538.845,0.0
53992.0,STARLINK-5108,PAYLOAD,2024-03-08 12:55:55,15.08854013,0.0001384,53.2149,256.3792,78.165,281.9497,0.00013918,1.929e-05,0.0,0 STARLINK-5108,1 53992U 22125AE  24068.53883832  .00001929  00000-0  13918-3 0  9996,2 53992  53.2149 256.3792 0001384  78.1650 281.9497 15.08854013 79079,6917.838,95.437,540.66,538.745,0.0
53992.0,STARLINK-5108,PAYLOAD,2024-03-08 19:17:27,15.08854782,0.0001419,53.2152,255.1883,83.5847,276.5307,0.00013638,1.884e-05,0.0,0 STARLINK-5108,1 53992U 22125AE  24068.80379537  .00001884  00000-0  13638-3 0  9997,2 53992  53.2152 255.1883 0001419  83.5847 276.5307 15.08854782 79194,6917.835,95.437,540.682,538.719,0.0
53992.0,STARLINK-5108,PAYLOAD,2024-03-09 11:11:19,15.08846631,0.0001136,53.2155,252.219,83.7787,276.3335,3.6742e-05,2.97e-06,0.0,0 STARLINK-5108,1 53992U 22125AE  24069.46619571  .00000297  00000-0  36742-4 0  9994,2 53992  53.2155 252.2190 0001136  83.7787 276.3335 15.08846631 79291,6917.86,95.437,540.511,538.939,0.0
53992.0,STARLINK-5108,PAYLOAD,2024-03-09 22:19:01,15.0884512,0.0001468,53.2158,250.1339,91.8219,268.2941,-1.5218e-06,-3.12e-06,0.0,0 STARLINK-5108,1 53992U 22125AE  24069.92987496 -.00000312  00000-0 -15218-5 0  9995,2 53992  53.2158 250.1339 0001468  91.8219 268.2941 15.08845120 79288,6917.865,95.437,540.745,538.714,0.0
53992.0,STARLINK-5108,PAYLOAD,2024-03-10 04:40:33,15.08845398,8.62e-05,53.2124,248.9415,66.7137,293.3945,4.1773e-05,3.77e-06,0.0,0 STARLINK-5108,1 53992U 22125AE  24070.19483326  .00000377  00000-0  41773-4 0  9992,2 53992  53.2124 248.9415 0000862  66.7137 293.3945 15.08845398 79323,6917.864,95.437,540.325,539.133,0.0
53992.0,STARLINK-5108,PAYLOAD,2024-03-10 20:34:25,15.0883795,0.0001152,53.215,245.9706,83.612,276.5003,-3.0454e-05,-7.72e-06,0.0,0 STARLINK-5108,1 53992U 22125AE  24070.85723865 -.00000772  00000-0 -30454-4 0  9995,2 53992  53.2150 245.9706 0001152  83.6120 276.5003 15.08837950 79508,6917.887,95.438,540.549,538.955,0.0
53992.0,STARLINK-5108,PAYLOAD,2024-03-10 22:09:48,15.08838556,8.52e-05,53.2137,245.6724,70.9702,289.1383,-2.3234e-05,-6.57e-06,0.0,0 STARLINK-5108,1 53992U 22125AE  24070.92347793 -.00000657  00000-0 -23234-4 0  9995,2 53992  53.2137 245.6724 0000852  70.9702 289.1383 15.08838556 79437,6917.885,95.438,540.339,539.16,0.0
53992.0,STARLINK-5108,PAYLOAD,2024-03-11 04:31:20,15.08840878,8.14e-05,53.2136,244.4828,71.34,288.768,-7.533e-05,-1.486e-05,0.0,0 STARLINK-5108,1 53992U 22125AE  24071.18843665 -.00001486  00000-0 -75330-4 0  9998,2 53992  53.2136 244.4828 0000814  71.3400 288.7680 15.08840878 79475,6917.878,95.437,540.306,539.18,0.0
53992.0,STARLINK-5108,PAYLOAD,2024-03-12 10:43:40,15.08837944,0.0001357,53.2117,238.8313,87.319,272.7957,5.2034e-05,5.4e-06,0.0,0 STARLINK-5108,1 53992U 22125AE  24072.44700025  .00000540  00000-0  52034-4 0  9994,2 53992  53.2117 238.8313 0001357  87.3190 272.7957 15.08837944 79746,6917.887,95.438,540.69,538.813,0.0
53992.0,STARLINK-5108,PAYLOAD,2024-03-13 10:34:27,15.08838969,0.0001407,53.2127,234.3715,87.9858,272.1296,0.00021818,3.186e-05,0.0,0 STARLINK-5108,1 53992U 22125AE  24073.44060170  .00003186  00000-0  21818-3 0  9999,2 53992  53.2127 234.3715 0001407  87.9858 272.1296 15.08838969 79813,6917.884,95.438,540.722,538.775,0.0
53992.0,STARLINK-5108,PAYLOAD,2024-03-13 20:06:46,15.08847563,0.0001487,53.213,232.5861,93.6973,266.4189,0.00016685,2.369e-05,0.0,0 STARLINK-5108,1 53992U 22125AE  24073.83803379  .00002369  00000-0  16685-3 0  9996,2 53992  53.2130 232.5861 0001487  93.6973 266.4189 15.08847563 79951,6917.857,95.437,540.751,538.694,0.0
53992.0,STARLINK-5108,PAYLOAD,2024-03-14 04:03:42,15.08844805,0.0001642,53.2112,231.0991,90.4995,269.6185,0.00010746,1.423e-05,0.0,0 STARLINK-5108,1 53992U 22125AE  24074.16923698  .00001423  00000-0  10746-3 0  9992,2 53992  53.2112 231.0991 0001642  90.4995 269.6185 15.08844805 79925,6917.866,95.437,540.867,538.595,0.0
53992.0,STARLINK-5108,PAYLOAD,2024-03-14 10:25:15,15.0880212,0.0001876,53.212,229.9106,88.6296,271.4911,0.00063791,9.868e-05,0.0,0 STARLINK-5108,1 53992U 22125AE  24074.43420741  .00009868  00000-0  63791-3 0  9992,2 53992  53.2120 229.9106 0001876  88.6296 271.4911 15.08802120 80047,6917.996,95.44,541.159,538.563,0.0
53992.0,STARLINK-5108,PAYLOAD,2024-03-16 10:06:49,15.08838155,0.000155,53.2133,220.9884,90.6626,269.4544,1.8542e-05,7e-08,0.0,0 STARLINK-5108,1 53992U 22125AE  24076.42140349  .00000007  00000-0  18542-4 0  9997,2 53992  53.2133 220.9884 0001550  90.6626 269.4544 15.08838155 80343,6917.886,95.438,540.823,538.679,0.0
53992.0,STARLINK-5108,PAYLOAD,2024-03-16 13:17:35,15.08838905,0.0001533,53.2133,220.3934,91.6799,268.4369,2.3947e-05,9.3e-07,0.0,0 STARLINK-5108,1 53992U 22125AE  24076.55388278  .00000093  00000-0  23947-4 0  9996,2 53992  53.2133 220.3934 0001533  91.6799 268.4369 15.08838905 80286,6917.884,95.438,540.809,538.688,0.0
53992.0,STARLINK-5108,PAYLOAD,2024-03-16 16:28:21,15.08839313,0.0001496,53.2148,219.7999,98.4909,261.6252,2.6084e-05,1.27e-06,0.0,0 STARLINK-5108,1 53992U 22125AE  24076.68636281  .00000127  00000-0  26084-4 0  9993,2 53992  53.2148 219.7999 0001496  98.4909 261.6252 15.08839313 80304,6917.882,95.438,540.782,538.713,0.0
53992.0,STARLINK-5108,PAYLOAD,2024-03-17 13:08:22,15.08836264,0.0001572,53.2185,215.9373,97.2156,262.9015,7.6038e-05,9.22e-06,0.0,0 STARLINK-5108,1 53992U 22125AE  24077.54748698  .00000922  00000-0  76038-4 0  9992,2 53992  53.2185 215.9373 0001572  97.2156 262.9015 15.08836264 80511,6917.892,95.438,540.844,538.669,0.0
53992.0,STARLINK-5108,PAYLOAD,2024-03-17 14:43:45,15.0883674,0.0001549,53.2179,215.6397,96.1291,263.9878,7.9957e-05,9.85e-06,0.0,0 STARLINK-5108,1 53992U 22125AE  24077.61372672  .00000985  00000-0  79957-4 0  9997,2 53992  53.2179 215.6397 0001549  96.1291 263.9878 15.08836740 80448,6917.89,95.438,540.827,538.684,0.0
53992.0,STARLINK-5108,PAYLOAD,2024-03-18 17:45:19,15.08840017,0.0001482,53.2174,210.5845,82.6813,277.4348,7.9709e-05,9.81e-06,0.0,0 STARLINK-5108,1 53992U 22125AE  24078.73980724  .00000981  00000-0  79709-4 0  9995,2 53992  53.2174 210.5845 0001482  82.6813 277.4348 15.08840017 80692,6917.88,95.438,540.771,538.72,0.0
53992.0,STARLINK-5108,PAYLOAD,2024-03-19 01:42:15,15.0883415,0.0001332,53.2166,209.0964,86.9347,273.1797,6.7341e-05,7.84e-06,0.0,0 STARLINK-5108,1 53992U 22125AE  24079.07101126  .00000784  00000-0  67341-4 0  9994,2 53992  53.2166 209.0964 0001332  86.9347 273.1797 15.08834150 80660,6917.898,95.438,540.685,538.842,0.0
53992.0,STARLINK-5108,PAYLOAD,2024-03-20 14:16:07,15.0883406,0.00017,53.2188,202.2551,80.2381,279.8803,7.293e-05,8.73e-06,0.0,0 STARLINK-5108,1 53992U 22125AE  24080.59453575  .00000873  00000-0  72930-4 0  9990,2 53992  53.2188 202.2551 0001700  80.2381 279.8803 15.08834060 80891,6917.899,95.438,540.94,538.588,0.0
53992.0,STARLINK-5108,PAYLOAD,2024-03-20 15:51:30,15.08837104,0.0001439,53.2188,201.9583,79.2854,280.83,8.7459e-05,1.104e-05,0.0,0 STARLINK-5108,1 53992U 22125AE  24080.66077334  .00001104  00000-0  87459-4 0  9993,2 53992  53.2188 201.9583 0001439  79.2854 280.8300 15.08837104 80980,6917.889,95.438,540.75,538.759,0.0
53992.0,STARLINK-5108,PAYLOAD,2024-03-21 14:06:54,15.08844194,0.0001323,53.2166,197.7956,95.6402,264.4741,0.00016743,2.378e-05,0.0,0 STARLINK-5108,1 53992U 22125AE  24081.58812972  .00002378  00000-0  16743-3 0  9991,2 53992  53.2166 197.7956 0001323  95.6402 264.4741 15.08844194 81047,6917.868,95.437,540.648,538.817,0.0
53992.0,STARLINK-5108,PAYLOAD,2024-03-21 17:17:39,15.08862224,0.000149,53.2175,197.1996,94.4404,265.6759,0.00028481,4.25e-05,0.0,0 STARLINK-5108,1 53992U 22125AE  24081.72059918  .00004250  00000-0  28481-3 0  9993,2 53992  53.2175 197.1996 0001490  94.4404 265.6759 15.08862224 81146,6917.812,95.436,540.708,538.647,0.0
53992.0,STARLINK-5108,PAYLOAD,2024-03-22 12:22:17,15.08854876,0.000162,53.2165,193.6373,87.5503,272.5675,0.00024388,3.597e-05,0.0,0 STARLINK-5108,1 53992U 22125AE  24082.51548204  .00003597  00000-0  24388-3 0  9997,2 53992  53.2165 193.6373 0001620  87.5503 272.5675 15.08854876 81264,6917.835,95.437,540.821,538.579,0.0
53992.0,STARLINK-5108,PAYLOAD,2024-03-22 13:57:40,15.0885648,0.0001624,53.2163,193.3396,88.2185,271.8993,0.00026328,3.906e-05,0.0,0 STARLINK-5108,1 53992U 22125AE  24082.58172075  .00003906  00000-0  26328-3 0  9993,2 53992  53.2163 193.3396 0001624  88.2185 271.8993 15.08856480 81192,6917.83,95.437,540.818,538.572,0.0
53992.0,STARLINK-5108,PAYLOAD,2024-03-23 12:13:04,15.08833998,0.0001417,53.2166,189.1701,99.0024,261.1128,-0.00036013,-6.014e-05,0.0,0 STARLINK-5108,1 53992U 22125AE  24083.50908000 -.00006014  00000-0 -36013-3 0  9998,2 53992  53.2166 189.1701 0001417  99.0024 261.1128 15.08833998 81416,6917.899,95.438,540.744,538.783,0.0
53992.0,STARLINK-5108,PAYLOAD,2024-03-23 13:48:27,15.08833202,0.0001348,53.2166,188.8737,89.2007,270.914,-0.0003695,-6.163e-05,0.0,0 STARLINK-5108,1 53992U 22125AE  24083.57532089 -.00006163  00000-0 -36950-3 0  9990,2 53992  53.2166 188.8737 0001348  89.2007 270.9140 15.08833202 81348,6917.901,95.438,540.699,538.834,0.0
53992.0,STARLINK-5108,PAYLOAD,2024-03-24 12:03:51,15.08843016,0.0001841,53.2169,184.712,115.1154,245.0029,-2.0935e-05,-6.21e-06,0.0,0 STARLINK-5108,1 53992U 22125AE  24084.50268512 -.00000621  00000-0 -20935-4 0  9991,2 53992  53.2169 184.7120 0001841 115.1154 245.0029 15.08843016 81569,6917.871,95.437,541.01,538.463,0.0
